NORAD_CAT_ID,OBJECT_NAME,OBJECT_TYPE,EPOCH,MEAN_MOTION,ECCENTRICITY,INCLINATION,RA_OF_ASC_NODE,ARG_OF_PERICENTER,MEAN_ANOMALY,BSTAR,MEAN_MOTION_DOT,MEAN_MOTION_DDOT,TLE_LINE0,TLE_LINE1,TLE_LINE2,SEMIMAJOR_AXIS,PERIOD,APOGEE,PERIGEE,DECAYED
53157.0,STARLINK-4093,PAYLOAD,2024-05-17 13:46:26,15.08807644,0.0001112,53.2169,251.9843,83.4935,276.6184,-0.0005793,-9.487e-05,0.0,0 STARLINK-4093,1 53157U 22083AB  24138.57392358 -.00009487  00000-0 -57930-3 0  9993,2 53157  53.2169 251.9843 0001112  83.4935 276.6184 15.08807644102187,6917.979,95.44,540.614,539.075,0.0
53157.0,STARLINK-4093,PAYLOAD,2024-05-17 16:57:12,15.08823639,0.0001477,53.2137,251.389,102.0403,258.0755,-0.00037329,-6.221e-05,0.0,0 STARLINK-4093,1 53157U 22083AB  24138.70639920 -.00006221  00000-0 -37329-3 0  9990,2 53157  53.2137 251.3890 0001477 102.0403 258.0755 15.08823639102203,6917.93,95.439,540.817,538.774,0.0
53157.0,STARLINK-4093,PAYLOAD,2024-05-18 00:54:07,15.0883339,0.0001159,53.2159,249.9018,90.7375,269.375,-6.9208e-05,-1.389e-05,0.0,0 STARLINK-4093,1 53157U 22083AB  24139.03759105 -.00001389  00000-0 -69208-4 0  9997,2 53157  53.2159 249.9018 0001159  90.7375 269.3750 15.08833390102250,6917.901,95.438,540.567,538.964,0.0
53157.0,STARLINK-4093,PAYLOAD,2024-05-18 13:37:12,15.08845257,0.0001695,53.2163,247.5233,111.8713,248.246,0.00029218,4.366e-05,0.0,0 STARLINK-4093,1 53157U 22083AB  24139.56751081  .00004366  00000-0  29218-3 0  9992,2 53157  53.2163 247.5233 0001695 111.8713 248.2460 15.08845257101702,6917.864,95.437,540.902,538.557,0.0
53157.0,STARLINK-4093,PAYLOAD,2024-05-19 00:44:54,15.08861752,0.0002638,53.2171,245.4388,102.8456,257.2831,0.00055495,8.56e-05,0.0,0 STARLINK-4093,1 53157U 22083AB  24140.03118735  .00008560  00000-0  55495-3 0  9995,2 53157  53.2171 245.4388 0002638 102.8456 257.2831 15.08861752102409,6917.814,95.436,541.504,537.854,0.0
53157.0,STARLINK-4093,PAYLOAD,2024-05-19 13:28:01,15.08812374,0.0001657,53.2173,243.0646,111.1595,248.9574,-0.00020687,-3.576e-05,0.0,0 STARLINK-4093,1 53157U 22083AB  24140.56113116 -.00003576  00000-0 -20687-3 0  9990,2 53157  53.2173 243.0646 0001657 111.1595 248.9574 15.08812374101854,6917.965,95.439,540.976,538.684,0.0
53157.0,STARLINK-4093,PAYLOAD,2024-05-19 16:38:47,15.08814552,0.0002127,53.2164,242.4667,132.0821,228.0352,-0.00010372,-1.937e-05,0.0,0 STARLINK-4093,1 53157U 22083AB  24140.69361056 -.00001937  00000-0 -10372-3 0  9991,2 53157  53.2164 242.4667 0002127 132.0821 228.0352 15.08814552102503,6917.958,95.439,541.295,538.352,0.0
53157.0,STARLINK-4093,PAYLOAD,2024-05-20 11:43:25,15.08842697,0.0001539,53.216,238.9042,73.5028,286.6133,0.00032498,4.888e-05,0.0,0 STARLINK-4093,1 53157U 22083AB  24141.48848887  .00004888  00000-0  32498-3 0  9990,2 53157  53.2160 238.9042 0001539  73.5028 286.6133 15.08842697102621,6917.872,95.437,540.802,538.672,0.0
53157.0,STARLINK-4093,PAYLOAD,2024-05-20 13:18:48,15.08848878,0.0001829,53.217,238.5989,123.1505,236.9663,0.00046059,7.052e-05,0.0,0 STARLINK-4093,1 53157U 22083AB  24141.55472227  .00007052  00000-0  46059-3 0  9993,2 53157  53.2170 238.5989 0001829 123.1505 236.9663 15.08848878102007,6917.853,95.437,540.984,538.453,0.0
53157.0,STARLINK-4093,PAYLOAD,2024-05-21 13:09:35,15.08836654,0.0001072,53.2156,234.1441,97.24,262.8714,-1.9888e-06,-3.19e-06,0.0,0 STARLINK-4093,1 53157U 22083AB  24142.54832578 -.00000319  00000-0 -19888-5 0  9995,2 53157  53.2156 234.1441 0001072  97.2400 262.8714 15.08836654102780,6917.891,95.438,540.497,539.014,0.0
53157.0,STARLINK-4093,PAYLOAD,2024-05-22 11:24:59,15.08836622,0.0001134,53.2162,229.9785,90.3269,269.7853,-1.9508e-05,-5.98e-06,0.0,0 STARLINK-4093,1 53157U 22083AB  24143.47568664 -.00000598  00000-0 -19508-4 0  9997,2 53157  53.2162 229.9785 0001134  90.3269 269.7853 15.08836622102297,6917.891,95.438,540.54,538.971,0.0
53157.0,STARLINK-4093,PAYLOAD,2024-05-23 12:51:09,15.0884217,0.0001197,53.2159,225.2207,88.9264,271.1865,0.00025859,3.83e-05,0.0,0 STARLINK-4093,1 53157U 22083AB  24144.53552918  .00003830  00000-0  25859-3 0  9995,2 53157  53.2159 225.2207 0001197  88.9264 271.1865 15.08842170103081,6917.874,95.437,540.567,538.911,0.0
53157.0,STARLINK-4093,PAYLOAD,2024-05-24 12:41:56,15.08848365,0.0001163,53.215,220.7612,96.7798,263.3327,0.00027932,4.161e-05,0.0,0 STARLINK-4093,1 53157U 22083AB  24145.52912707  .00004161  00000-0  27932-3 0  9993,2 53157  53.2150 220.7612 0001163  96.7798 263.3327 15.08848365102609,6917.855,95.437,540.524,538.915,0.0
53157.0,STARLINK-4093,PAYLOAD,2024-05-24 22:14:15,15.08835878,3.91e-05,53.2149,218.9753,110.7101,249.3933,-0.00012199,-2.228e-05,0.0,0 STARLINK-4093,1 53157U 22083AB  24145.92656415 -.00002228  00000-0 -12199-3 0  9991,2 53157  53.2149 218.9753 0000391 110.7101 249.3933 15.08835878102667,6917.893,95.438,540.028,539.487,0.0
53157.0,STARLINK-4093,PAYLOAD,2024-05-25 14:08:06,15.08842255,0.0001307,53.2151,216.0064,78.4906,281.6233,8.1658e-05,1.012e-05,0.0,0 STARLINK-4093,1 53157U 22083AB  24146.58896802  .00001012  00000-0  81658-4 0  9995,2 53157  53.2151 216.0064 0001307  78.4906 281.6233 15.08842255102765,6917.873,95.437,540.643,538.834,0.0
53157.0,STARLINK-4093,PAYLOAD,2024-05-26 04:26:35,15.08843185,0.0001593,53.2141,213.3294,72.8286,287.288,0.00013226,1.818e-05,0.0,0 STARLINK-4093,1 53157U 22083AB  24147.18512807  .00001818  00000-0  13226-3 0  9991,2 53157  53.2141 213.3294 0001593  72.8286 287.2880 15.08843185103488,6917.871,95.437,540.838,538.634,0.0
53157.0,STARLINK-4093,PAYLOAD,2024-05-26 13:58:53,15.08842573,0.0001257,53.2164,211.5434,97.4711,262.6424,8.8883e-05,1.127e-05,0.0,0 STARLINK-4093,1 53157U 22083AB  24147.58256782  .00001127  00000-0  88883-4 0  9997,2 53157  53.2164 211.5434 0001257  97.4711 262.6424 15.08842573102910,6917.873,95.437,540.607,538.868,0.0
53157.0,STARLINK-4093,PAYLOAD,2024-05-26 21:55:49,15.08848277,0.0001335,53.2151,210.0571,81.2169,278.8975,0.00012896,1.766e-05,0.0,0 STARLINK-4093,1 53157U 22083AB  24147.91376551  .00001766  00000-0  12896-3 0  9990,2 53157  53.2151 210.0571 0001335  81.2169 278.8975 15.08848277102969,6917.855,95.437,540.644,538.797,0.0
53157.0,STARLINK-4093,PAYLOAD,2024-05-27 10:38:54,15.08848432,0.0001209,53.2158,207.6801,77.5477,282.565,-5.8464e-05,-1.218e-05,0.0,0 STARLINK-4093,1 53157U 22083AB  24148.44368521 -.00001218  00000-0 -58464-4 0  9993,2 53157  53.2158 207.6801 0001209  77.5477 282.5650 15.08848432103678,6917.855,95.437,540.556,538.883,0.0
53157.0,STARLINK-4093,PAYLOAD,2024-05-27 13:49:40,15.08847089,0.0001156,53.2155,207.0849,79.3461,280.7661,0.00014353,1.998e-05,0.0,0 STARLINK-4093,1 53157U 22083AB  24148.57616489  .00001998  00000-0  14353-3 0  9997,2 53157  53.2155 207.0849 0001156  79.3461 280.7661 15.08847089103067,6917.859,95.437,540.523,538.924,0.0
53157.0,STARLINK-4093,PAYLOAD,2024-05-28 04:08:09,15.08841235,0.000127,53.2151,204.4059,86.2353,273.8784,8.7628e-05,1.107e-05,0.0,0 STARLINK-4093,1 53157U 22083AB  24149.17232850  .00001107  00000-0  87628-4 0  9998,2 53157  53.2151 204.4059 0001270  86.2353 273.8784 15.08841235103786,6917.877,95.437,540.62,538.863,0.0
53157.0,STARLINK-4093,PAYLOAD,2024-05-28 10:29:41,15.08837528,0.0001201,53.2161,203.2161,92.1699,267.9431,5.6172e-05,6.06e-06,0.0,0 STARLINK-4093,1 53157U 22083AB  24149.43729109  .00000606  00000-0  56172-4 0  9998,2 53157  53.2161 203.2161 0001201  92.1699 267.9431 15.08837528103199,6917.888,95.438,540.584,538.922,0.0
53157.0,STARLINK-4093,PAYLOAD,2024-05-29 08:45:05,15.08838283,0.000122,53.216,199.0529,91.7802,268.333,5.6323e-05,6.09e-06,0.0,0 STARLINK-4093,1 53157U 22083AB  24150.36465033  .00000609  00000-0  56323-4 0  9996,2 53157  53.2160 199.0529 0001220  91.7802 268.3330 15.08838283103967,6917.886,95.438,540.595,538.907,0.0
53157.0,STARLINK-4093,PAYLOAD,2024-05-30 08:35:52,15.0884244,0.0001182,53.2154,194.5913,85.4089,274.7038,0.00013213,1.816e-05,0.0,0 STARLINK-4093,1 53157U 22083AB  24151.35824715  .00001816  00000-0  13213-3 0  9993,2 53157  53.2154 194.5913 0001182  85.4089 274.7038 15.08842440103484,6917.873,95.437,540.556,538.92,0.0
53157.0,STARLINK-4093,PAYLOAD,2024-05-31 02:05:06,15.08844805,0.0001272,53.216,191.3242,94.4531,265.6607,0.00011471,1.538e-05,0.0,0 STARLINK-4093,1 53157U 22083AB  24152.08688634  .00001538  00000-0  11471-3 0  9997,2 53157  53.2160 191.3242 0001272  94.4531 265.6607 15.08844805104224,6917.866,95.437,540.611,538.851,0.0
53157.0,STARLINK-4093,PAYLOAD,2024-05-31 11:37:26,15.08841083,0.0001244,53.2157,189.5371,91.0302,269.0833,6.5648e-05,7.57e-06,0.0,0 STARLINK-4093,1 53157U 22083AB  24152.48432989  .00000757  00000-0  65648-4 0  9999,2 53157  53.2157 189.5371 0001244  91.0302 269.0833 15.08841083103650,6917.877,95.437,540.603,538.881,0.0
53157.0,STARLINK-4093,PAYLOAD,2024-05-31 19:34:21,15.08843655,0.0001403,53.2171,188.0526,85.8942,274.2211,7.0786e-05,8.39e-06,0.0,0 STARLINK-4093,1 53157U 22083AB  24152.81552796  .00000839  00000-0  70786-4 0  9995,2 53157  53.2171 188.0526 0001403  85.8942 274.2211 15.08843655103701,6917.869,95.437,540.705,538.764,0.0
53157.0,STARLINK-4093,PAYLOAD,2024-06-01 01:55:54,15.08842517,0.0001307,53.2159,186.8625,85.8358,274.2784,3.3886e-05,2.51e-06,0.0,0 STARLINK-4093,1 53157U 22083AB  24153.08048925  .00000251  00000-0  33886-4 0  9997,2 53157  53.2159 186.8625 0001307  85.8358 274.2784 15.08842517104372,6917.873,95.437,540.642,538.834,0.0
53157.0,STARLINK-4093,PAYLOAD,2024-06-01 09:52:50,15.08840514,0.0001261,53.2158,185.3753,86.9332,273.1804,1.1468e-05,-1.05e-06,0.0,0 STARLINK-4093,1 53157U 22083AB  24153.41169141 -.00000105  00000-0  11468-4 0  9999,2 53157  53.2158 185.3753 0001261  86.9332 273.1804 15.08840514103791,6917.879,95.438,540.616,538.871,0.0
53157.0,STARLINK-4093,PAYLOAD,2024-06-02 08:08:13,15.08838808,0.0001282,53.2157,181.2116,92.1764,267.9375,0.00012704,1.734e-05,0.0,0 STARLINK-4093,1 53157U 22083AB  24154.33905075  .00001734  00000-0  12704-3 0  9996,2 53157  53.2157 181.2116 0001282  92.1764 267.9375 15.08838808104562,6917.884,95.438,540.636,538.862,0.0
